start=new Date('2023-03-09T00:00:00.000Z').valueOf();
sats=[{"PERIOD":"95.437","MEAN_MOTION_DDOT":"0.0000000000000","DECAY_DATE":null,"FILE":"3855077","LAUNCH_DATE":"2022-02-21","SITE":"AFETR","TLE_LINE2":"2 51726  53.2213 203.7923 0002089  99.5922 260.5306 15.08842140 57951","CENTER_NAME":"EARTH","APOAPSIS":"541.184","GP_ID":"227723443","RA_OF_ASC_NODE":"203.7923","PERIAPSIS":"538.294","BSTAR":"0.00016808000000","SEMIMAJOR_AXIS":"6917.874","MEAN_MOTION_DOT":"0.00002388","OBJECT_NAME":"STARLINK-3527","MEAN_ANOMALY":"260.5306","ELEMENT_SET_NO":"999","RCS_SIZE":"LARGE","TIME_SYSTEM":"UTC","COUNTRY_CODE":"US","OBJECT_ID":"2022-016N","MEAN_MOTION":"15.08842140","REF_FRAME":"TEME","EPHEMERIS_TYPE":"0","EPOCH":"2023-03-08T16:18:49.294080","OBJECT_TYPE":"PAYLOAD","MEAN_ELEMENT_THEORY":"SGP4","NORAD_CAT_ID":"51726","ARG_OF_PERICENTER":"99.5922","ECCENTRICITY":"0.00020890","TLE_LINE1":"1 51726U 22016N   23067.67973720  .00002388  00000-0  16808-3 0  9998","INCLINATION":"53.2213","CLASSIFICATION_TYPE":"U","REV_AT_EPOCH":"5795"},{"MEAN_MOTION":"15.08834519","EPHEMERIS_TYPE":"0","REF_FRAME":"TEME","COUNTRY_CODE":"US","OBJECT_ID":"2022-016P","ELEMENT_SET_NO":"999","TIME_SYSTEM":"UTC","RCS_SIZE":"LARGE","MEAN_MOTION_DOT":"-0.00001358","OBJECT_NAME":"STARLINK-3532","MEAN_ANOMALY":"276.7345","INCLINATION":"53.2165","TLE_LINE1":"1 51727U 22016P   23067.77449602 -.00001358  00000-0 -67287-4 0  9993","CLASSIFICATION_TYPE":"U","REV_AT_EPOCH":"5782","ECCENTRICITY":"0.00010410","ARG_OF_PERICENTER":"83.3766","OBJECT_TYPE":"PAYLOAD","NORAD_CAT_ID":"51727","MEAN_ELEMENT_THEORY":"SGP4","EPOCH":"2023-03-08T18:35:16.456128","SITE":"AFETR","DECAY_DATE":null,"LAUNCH_DATE":"2022-02-21","FILE":"3855077","MEAN_MOTION_DDOT":"0.0000000000000","PERIOD":"95.438","RA_OF_ASC_NODE":"213.3629","GP_ID":"227723690","APOAPSIS":"540.482","SEMIMAJOR_AXIS":"6917.897","PERIAPSIS":"539.042","BSTAR":"-0.00006728700000","CENTER_NAME":"EARTH","TLE_LINE2":"2 51727  53.2165 213.3629 0001041  83.3766 276.7345 15.08834519 57821"},{"TLE_LINE2":"2 51728  53.2140 203.2287 0001368 104.1119 256.0025 15.08866051 57977","CENTER_NAME":"EARTH","APOAPSIS":"540.612","RA_OF_ASC_NODE":"203.2287","GP_ID":"227722443","PERIAPSIS":"538.719","BSTAR":"0.00134350000000","SEMIMAJOR_AXIS":"6917.801","MEAN_MOTION_DDOT":"0.0000000000000","PERIOD":"95.436","DECAY_DATE":null,"FILE":"3855077","LAUNCH_DATE":"2022-02-21","SITE":"AFETR","EPOCH":"2023-03-08T19:18:59.533344","OBJECT_TYPE":"PAYLOAD","MEAN_ELEMENT_THEORY":"SGP4","NORAD_CAT_ID":"51728","ARG_OF_PERICENTER":"104.1119","ECCENTRICITY":"0.00013680","TLE_LINE1":"1 51728U 22016Q   23067.80485571  .00021174  00000-0  13435-2 0  9993","INCLINATION":"53.2140","CLASSIFICATION_TYPE":"U","REV_AT_EPOCH":"5797","MEAN_MOTION_DOT":"0.00021174","OBJECT_NAME":"STARLINK-3448","MEAN_ANOMALY":"256.0025","ELEMENT_SET_NO":"999","RCS_SIZE":"LARGE","TIME_SYSTEM":"UTC","COUNTRY_CODE":"US","OBJECT_ID":"2022-016Q","MEAN_MOTION":"15.08866051","REF_FRAME":"TEME","EPHEMERIS_TYPE":"0"},{"CENTER_NAME":"EARTH","TLE_LINE2":"2 51729  53.2146 203.4879 0004201   3.4201 356.6819 15.08843824 57965","APOAPSIS":"542.640","RA_OF_ASC_NODE":"203.4879","GP_ID":"227722194","PERIAPSIS":"536.828","BSTAR":"0.00075232000000","SEMIMAJOR_AXIS":"6917.869","DECAY_DATE":null,"FILE":"3855077","LAUNCH_DATE":"2022-02-21","PERIOD":"95.437","MEAN_MOTION_DDOT":"0.0000000000000","SITE":"AFETR","OBJECT_TYPE":"PAYLOAD","MEAN_ELEMENT_THEORY":"SGP4","NORAD_CAT_ID":"51729","EPOCH":"2023-03-08T17:59:28.256640","TLE_LINE1":"1 51729U 22016R   23067.74963260  .00011708  00000-0  75232-3 0  9999","INCLINATION":"53.2146","REV_AT_EPOCH":"5796","CLASSIFICATION_TYPE":"U","ECCENTRICITY":"0.00042010","ARG_OF_PERICENTER":"3.4201","ELEMENT_SET_NO":"999","RCS_SIZE":"LARGE","TIME_SYSTEM":"UTC","OBJECT_NAME":"STARLINK-3523","MEAN_MOTION_DOT":"0.00011708","MEAN_ANOMALY":"356.6819","MEAN_MOTION":"15.08843824","REF_FRAME":"TEME","EPHEMERIS_TYPE":"0","COUNTRY_CODE":"US","OBJECT_ID":"2022-016R"},{"OBJECT_ID":"2022-016S","COUNTRY_CODE":"US","REF_FRAME":"TEME","EPHEMERIS_TYPE":"0","MEAN_MOTION":"15.08846280","MEAN_ANOMALY":"270.4523","MEAN_MOTION_DOT":"0.00018097","OBJECT_NAME":"STARLINK-3530","RCS_SIZE":"LARGE","TIME_SYSTEM":"UTC","ELEMENT_SET_NO":"999","ARG_OF_PERICENTER":"89.6548","ECCENTRICITY":"0.00006830","REV_AT_EPOCH":"5795","CLASSIFICATION_TYPE":"U","TLE_LINE1":"1 51730U 22016S   23067.66502168  .00018097  00000-0  11520-2 0  9995","INCLINATION":"53.2192","EPOCH":"2023-03-08T15:57:37.873152","MEAN_ELEMENT_THEORY":"SGP4","NORAD_CAT_ID":"51730","OBJECT_TYPE":"PAYLOAD","SITE":"AFETR","MEAN_MOTION_DDOT":"0.0000000000000","PERIOD":"95.437","FILE":"3855077","LAUNCH_DATE":"2022-02-21","DECAY_DATE":null,"BSTAR":"0.00115200000000","PERIAPSIS":"539.254","SEMIMAJOR_AXIS":"6917.861","APOAPSIS":"540.199","GP_ID":"227722943","RA_OF_ASC_NODE":"203.8555","TLE_LINE2":"2 51730  53.2192 203.8555 0000683  89.6548 270.4523 15.08846280 57956","CENTER_NAME":"EARTH"},{"MEAN_MOTION_DOT":"0.00015223","OBJECT_NAME":"STARLINK-3514","MEAN_ANOMALY":"286.3893","ELEMENT_SET_NO":"999","RCS_SIZE":"LARGE","TIME_SYSTEM":"UTC","COUNTRY_CODE":"US","OBJECT_ID":"2022-016T","MEAN_MOTION":"15.08837822","REF_FRAME":"TEME","EPHEMERIS_TYPE":"0","EPOCH":"2023-03-08T22:35:04.426080","OBJECT_TYPE":"PAYLOAD","MEAN_ELEMENT_THEORY":"SGP4","NORAD_CAT_ID":"51731","ARG_OF_PERICENTER":"73.7243","ECCENTRICITY":"0.00013110","TLE_LINE1":"1 51731U 22016T   23067.94102345  .00015223  00000-0  97252-3 0  9995","INCLINATION":"53.2153","CLASSIFICATION_TYPE":"U","REV_AT_EPOCH":"5910","MEAN_MOTION_DDOT":"0.0000000000000","PERIOD":"95.438","DECAY_DATE":null,"FILE":"3855067","LAUNCH_DATE":"2022-02-21","SITE":"AFETR","TLE_LINE2":"2 51731  53.2153 202.6150 0001311  73.7243 286.3893 15.08837822 59104","CENTER_NAME":"EARTH","APOAPSIS":"540.659","RA_OF_ASC_NODE":"202.6150","GP_ID":"227699003","BSTAR":"0.00097252000000","PERIAPSIS":"538.845","SEMIMAJOR_AXIS":"6917.887"},{"CENTER_NAME":"EARTH","TLE_LINE2":"2 51732  53.2152 203.8728 0001302 107.5881 252.5253 15.08846580 59096","SEMIMAJOR_AXIS":"6917.860","PERIAPSIS":"538.825","BSTAR":"0.00084404000000","RA_OF_ASC_NODE":"203.8728","GP_ID":"227721944","APOAPSIS":"540.626","LAUNCH_DATE":"2022-02-21","FILE":"3855077","DECAY_DATE":null,"MEAN_MOTION_DDOT":"0.0000000000000","PERIOD":"95.437","SITE":"AFETR","NORAD_CAT_ID":"51732","MEAN_ELEMENT_THEORY":"SGP4","OBJECT_TYPE":"PAYLOAD","EPOCH":"2023-03-08T15:52:19.744032","CLASSIFICATION_TYPE":"U","REV_AT_EPOCH":"5909","INCLINATION":"53.2152","TLE_LINE1":"1 51732U 22016U   23067.66133963  .00013173  00000-0  84404-3 0  9992","ARG_OF_PERICENTER":"107.5881","ECCENTRICITY":"0.00013020","TIME_SYSTEM":"UTC","RCS_SIZE":"LARGE","ELEMENT_SET_NO":"999","MEAN_ANOMALY":"252.5253","MEAN_MOTION_DOT":"0.00013173","OBJECT_NAME":"STARLINK-3518","EPHEMERIS_TYPE":"0","REF_FRAME":"TEME","MEAN_MOTION":"15.08846580","OBJECT_ID":"2022-016U","COUNTRY_CODE":"US"},{"MEAN_ANOMALY":"255.6751","OBJECT_NAME":"STARLINK-3525","MEAN_MOTION_DOT":"0.00005641","RCS_SIZE":"LARGE","TIME_SYSTEM":"UTC","ELEMENT_SET_NO":"999","OBJECT_ID":"2022-016V","COUNTRY_CODE":"US","REF_FRAME":"TEME","EPHEMERIS_TYPE":"0","MEAN_MOTION":"15.08840281","EPOCH":"2023-03-08T16:02:55.419072","MEAN_ELEMENT_THEORY":"SGP4","NORAD_CAT_ID":"51733","OBJECT_TYPE":"PAYLOAD","ECCENTRICITY":"0.00022190","ARG_OF_PERICENTER":"104.4488","REV_AT_EPOCH":"5795","CLASSIFICATION_TYPE":"U","TLE_LINE1":"1 51733U 22016V   23067.66869698  .00005641  00000-0  37226-3 0  9995","INCLINATION":"53.2178","PERIOD":"95.438","MEAN_MOTION_DDOT":"0.0000000000000","FILE":"3855077","LAUNCH_DATE":"2022-02-21","DECAY_DATE":null,"SITE":"AFETR","TLE_LINE2":"2 51733  53.2178 203.8413 0002219 104.4488 255.6751 15.08840281 57955","CENTER_NAME":"EARTH","BSTAR":"0.00037226000000","PERIAPSIS":"538.209","SEMIMAJOR_AXIS":"6917.880","APOAPSIS":"541.280","RA_OF_ASC_NODE":"203.8413","GP_ID":"227722694"},{"DECAY_DATE":null,"FILE":"3855077","LAUNCH_DATE":"2022-02-21","MEAN_MOTION_DDOT":"0.0000000000000","PERIOD":"95.437","SITE":"AFETR","CENTER_NAME":"EARTH","TLE_LINE2":"2 51734  53.2139 203.3284 0001416  96.5921 263.5233 15.08842766 57969","APOAPSIS":"540.717","RA_OF_ASC_NODE":"203.3284","GP_ID":"227723444","PERIAPSIS":"538.757","BSTAR":"0.00017012000000","SEMIMAJOR_AXIS":"6917.872","ELEMENT_SET_NO":"999","RCS_SIZE":"LARGE","TIME_SYSTEM":"UTC","OBJECT_NAME":"STARLINK-3450","MEAN_MOTION_DOT":"0.00002421","MEAN_ANOMALY":"263.5233","MEAN_MOTION":"15.08842766","REF_FRAME":"TEME","EPHEMERIS_TYPE":"0","COUNTRY_CODE":"US","OBJECT_ID":"2022-016W","OBJECT_TYPE":"PAYLOAD","MEAN_ELEMENT_THEORY":"SGP4","NORAD_CAT_ID":"51734","EPOCH":"2023-03-08T18:47:12.111648","TLE_LINE1":"1 51734U 22016W   23067.78277907  .00002421  00000-0  17012-3 0  9999","INCLINATION":"53.2139","CLASSIFICATION_TYPE":"U","REV_AT_EPOCH":"5796","ECCENTRICITY":"0.00014160","ARG_OF_PERICENTER":"96.5921"},{"MEAN_ANOMALY":"283.2019","MEAN_MOTION_DOT":"0.00009511","OBJECT_NAME":"STARLINK-3517","TIME_SYSTEM":"UTC","RCS_SIZE":"LARGE","ELEMENT_SET_NO":"999","OBJECT_ID":"2022-016X","COUNTRY_CODE":"US","EPHEMERIS_TYPE":"0","REF_FRAME":"TEME","MEAN_MOTION":"15.08846702","EPOCH":"2023-03-08T18:57:48.093408","NORAD_CAT_ID":"51735","MEAN_ELEMENT_THEORY":"SGP4","OBJECT_TYPE":"PAYLOAD","ECCENTRICITY":"0.00016790","ARG_OF_PERICENTER":"76.9160","REV_AT_EPOCH":"5797","CLASSIFICATION_TYPE":"U","INCLINATION":"53.2144","TLE_LINE1":"1 51735U 22016X   23067.79013997  .00009511  00000-0  61473-3 0  9995","MEAN_MOTION_DDOT":"0.0000000000000","PERIOD":"95.437","LAUNCH_DATE":"2022-02-21","FILE":"3855077","DECAY_DATE":null,"SITE":"AFETR","TLE_LINE2":"2 51735  53.2144 203.2933 0001679  76.9160 283.2019 15.08846702 57970","CENTER_NAME":"EARTH","SEMIMAJOR_AXIS":"6917.860","BSTAR":"0.00061473000000","PERIAPSIS":"538.563","RA_OF_ASC_NODE":"203.2933","GP_ID":"227723691","APOAPSIS":"540.886"}];
